OBJECT_NAME,OBJECT_ID,EPOCH,MEAN_MOTION,ECCENTRICITY,INCLINATION,RA_OF_ASC_NODE,ARG_OF_PERICENTER,MEAN_ANOMALY,EPHEMERIS_TYPE,CLASSIFICATION_TYPE,NORAD_CAT_ID,ELEMENT_SET_NO,REV_AT_EPOCH,BSTAR,MEAN_MOTION_DOT,MEAN_MOTION_DDOT
BEIDOU-3S IGSO-1S (C31),2015-019A,2026-07-02T19:12:21.705408,1.00680073,.00768606,49.1798,295.2769,219.1125,144.2493,0,U,40549,999,4123,0,-.19E-5,0
GPS BIIF-10 (PRN 08),2015-033A,2026-07-06T15:59:32.228736,2.00555302,.0115221,53.9675,266.2830,30.2724,330.4554,0,U,40730,999,8038,0,-.8E-7,0
BEIDOU-3S M2S (C58),2015-037A,2026-07-06T15:41:07.721376,1.86232436,.0009208,54.8518,301.3766,257.4522,102.4691,0,U,40748,999,7448,0,-.61E-6,0
BEIDOU-3S M1S (C57),2015-037B,2026-07-06T07:43:15.453696,1.86254876,.00029568,54.8493,301.3751,63.3194,296.7354,0,U,40749,999,7448,0,-.61E-6,0
GSAT0206 (GALILEO 10),2015-045B,2026-07-03T21:09:31.262976,1.70473649,.0001957,54.9411,221.1433,327.0241,33.0412,0,U,40890,999,6732,0,.74E-6,0
BEIDOU-3S IGSO-2S (C56),2015-053A,2026-07-06T15:57:08.432352,1.00255328,.0065881,49.1915,258.5511,192.9035,166.4706,0,U,40938,999,3954,0,-.111E-5,0
GPS BIIF-11 (PRN 10),2015-062A,2026-07-06T05:21:07.954272,2.00567022,.01124981,56.9722,30.0783,230.9268,128.1173,0,U,41019,999,7821,0,-.54E-6,0
GSAT-15 (GAGAN/PRN 139),2015-065A,2026-07-06T14:14:15.556704,1.00272104,.0003997,0.0319,255.1193,191.4968,145.0177,0,U,41028,999,3899,0,-.243E-5,0
GSAT0209 (GALILEO 12),2015-079A,2026-07-04T15:16:27.577056,1.70473787,.0005067,55.8369,100.7834,348.6925,11.3144,0,U,41174,999,6507,0,0,0
GSAT0208 (GALILEO 11),2015-079B,2026-07-01T22:10:17.474304,1.70473736,.0004614,55.8336,100.8547,354.4374,5.5610,0,U,41175,999,6544,0,-.13E-6,0
IRNSS-1E,2016-003A,2026-07-06T20:16:57.966240,1.00269537,.0019195,33.2756,59.4648,178.8904,102.4500,0,U,41241,999,3827,0,-.302E-5,0
GPS BIIF-12 (PRN 32),2016-007A,2026-07-05T19:35:23.070336,2.00575903,.00966228,55.5343,88.7211,247.6354,111.3784,0,U,41328,999,7621,0,-.11E-6,0
COSMOS 2514 (751),2016-008A,2026-07-06T01:20:02.846400,2.13102616,.0012,65.0093,312.3594,200.1284,159.8379,0,U,41330,999,8102,0,-.45E-6,0
BEIDOU-2 IGSO-6 (C13),2016-021A,2026-06-26T02:38:38.671584,1.00258926,.0057558,60.2385,37.9495,231.0163,137.2672,0,U,41434,999,3757,0,-.145E-5,0
IRNSS-1G,2016-027A,2026-07-06T16:01:32.475936,1.00277498,.0005822,5.2425,97.0252,7.9551,189.6780,0,U,41469,999,3737,0,-.321E-5,0
GSAT0211 (GALILEO 14),2016-030A,2026-07-04T09:27:13.569984,1.70473887,.000312,55.0914,221.2214,320.4697,39.5831,0,U,41549,999,6296,0,.74E-6,0
GSAT0210 (GALILEO 13),2016-030B,2026-07-03T11:28:19.668288,1.70473811,.000896,55.0896,221.2446,258.8551,101.1239,0,U,41550,999,6294,0,.74E-6,0
BEIDOU-2 G7 (C03),2016-037A,2026-07-06T19:27:06.887232,1.00266863,.0006533,1.7655,69.4623,5.8373,251.7492,0,U,41586,999,708,0,-.339E-5,0
EUTELSAT 117 WEST B (WAAS/PRN 131),2016-038B,2026-07-06T13:14:17.453760,1.00271383,.0000109,0.0038,188.7482,291.5325,245.8156,0,U,41589,999,3685,0,.3E-7,0
GSAT0207 (GALILEO 15),2016-069A,2026-07-05T12:23:25.059264,1.70473449,.00046223,55.5088,100.5792,338.2486,21.7516,0,U,41859,999,5971,0,0,0
GSAT0212 (GALILEO 16),2016-069B,2026-07-04T18:47:36.676032,1.70473848,.0004449,55.5064,100.5945,2.8841,357.1371,0,U,41860,999,5995,0,0,0
GSAT0213 (GALILEO 17),2016-069C,2026-06-28T02:40:06.685536,1.70474290,.00045371,55.5047,100.7870,315.9585,43.9839,0,U,41861,999,5970,0,-.34E-6,0
GSAT0214 (GALILEO 18),2016-069D,2026-07-06T11:16:20.180064,1.70473830,.0003807,55.5080,100.5485,326.3091,33.6861,0,U,41862,999,5997,0,-.1E-7,0
SES-15 (WAAS/PRN 133),2017-026A,2026-07-06T16:36:07.829856,1.00267383,.0000516,0.0241,328.0253,131.1108,305.4075,0,U,42709,999,762,0,.75E-6,0
QZS-2 (QZSS/PRN 194),2017-028A,2026-07-06T10:52:56.512704,1.00278986,.07583059,39.3984,242.8697,269.4935,77.5786,0,U,42738,999,781,0,-.103E-5,0
QZS-3 (QZSS/PRN 199),2017-048A,2026-07-06T17:49:06.300192,1.00264167,.0001891,0.0813,223.1942,244.8838,210.8696,0,U,42917,999,3245,0,-.334E-5,0
COSMOS 2522 (752),2017-055A,2026-07-06T08:42:02.433888,2.13102015,.0010922,64.0804,191.2316,240.7707,119.1473,0,U,42939,999,6838,0,.112E-5,0
QZS-4 (QZSS/PRN 195),2017-062A,2026-07-06T17:54:43.261056,1.00293100,.074719,40.0978,343.2382,268.3770,80.3868,0,U,42965,999,3199,0,-.307E-5,0
BEIDOU-3 M1 (C19),2017-069A,2026-07-06T11:07:24.227904,1.86231178,.0009445,56.7083,62.4504,327.9613,32.0460,0,U,43001,999,5896,0,-.4E-6,0
BEIDOU-3 M2 (C20),2017-069B,2026-07-05T20:46:02.841888,1.86231041,.0008591,56.7072,62.5056,354.6254,5.4316,0,U,43002,999,5894,0,-.39E-6,0
GSAT0215 (GALILEO 19),2017-079A,2026-07-04T14:42:42.306624,1.70474500,.000355,55.0696,221.0270,263.9168,96.1170,0,U,43055,999,5328,0,.74E-6,0
